HTV-X1                  
1 66174U 25241A   26085.14882791  .00002312  00000+0  84431-4 0  9990
2 66174  51.6382 353.7689 0007376 235.1335 124.8953 15.32413505 23463
SZ-21 MODULE            
1 66515U 25246C   26084.41173396  .00034230  00000+0  28093-3 0  9992
2 66515  41.4741 106.4894 0001002 208.3621 151.7166 15.69739008 20549
SHENZHOU-22             
1 66645U 25272A   26085.09293349  .00022598  00000+0  25951-3 0  9995
2 66645  41.4666 108.2894 0004388  24.9503 335.1548 15.61499401280283
SOYUZ-MS 28             
1 66664U 25275A   26085.16418550  .00013194  00000+0  25101-3 0  9999
2 66664  51.6341 350.9181 0006236 233.8579 126.1832 15.48550860558947
DUPLEX                  
1 66906U 98067XS  26085.01986895  .00026281  00000+0  35962-3 0  9990
2 66906  51.6300 347.7072 0003216 183.4701 176.6269 15.57222315 17671
ISS OBJECT XT           
1 66907U 98067XT  26085.11034862  .00188746  00000+0  12094-2 0  9995
2 66907  51.6253 341.5278 0005635 185.9249 174.1684 15.75161694 17766
ISS OBJECT XU           
1 66908U 98067XU  26085.10696777  .00197242  00000+0  12506-2 0  9993
2 66908  51.6242 341.5012 0005792 185.7091 174.3843 15.75375865 17764
SILVERSAT               
1 66909U 98067XV  26085.06941294  .00268808  00000+0  13650-2 0  9994
2 66909  51.6220 340.4899 0006549 190.6465 169.4399 15.80138223 17776
ISS OBJECT XW           
1 66910U 98067XW  26085.11510426  .00172036  00000+0  11684-2 0  9993
2 66910  51.6240 341.5525 0006073 184.4590 175.6356 15.73866455 17768
ISS OBJECT XX           
1 66911U 98067XX  26085.08486846  .00393170  00000+0  14914-2 0  9991
2 66911  51.6196 339.0611 0008140 194.5249 165.5522 15.86004420 17782
ISS OBJECT XY           
1 66912U 98067XY  26085.11679333  .00098883  00000+0  90497-3 0  9995
2 66912  51.6274 343.8421 0004151 183.5421 176.5546 15.66993563 17725
KNACKSAT-2              
1 67683U 98067XZ  26085.01307708  .00036370  00000+0  57280-3 0  9990
2 67683  51.6321 350.6612 0009902 244.8689 115.1274 15.53163580  7324
